OBJECT_NAME,OBJECT_ID,EPOCH,MEAN_MOTION,ECCENTRICITY,INCLINATION,RA_OF_ASC_NODE,ARG_OF_PERICENTER,MEAN_ANOMALY,EPHEMERIS_TYPE,CLASSIFICATION_TYPE,NORAD_CAT_ID,ELEMENT_SET_NO,REV_AT_EPOCH,BSTAR,MEAN_MOTION_DOT,MEAN_MOTION_DDOT
ONEWEB-0421,2021-132AD,2026-07-09T15:00:00.820800,13.18608134,.00013061,87.9186,330.9935,109.0068,251.1206,0,U,50496,999,22457,.36815373E-1,.14534E-3,0
ONEWEB-0424,2021-132AE,2026-07-09T15:53:25.780416,13.18622331,.00024876,87.9186,330.9854,105.2254,254.9154,0,U,50497,999,22460,.30759977E-1,.12145E-3,0
ONEWEB-0426,2021-132AF,2026-07-09T14:53:56.382144,13.18685785,.00015012,87.9187,330.9851,74.1664,285.9633,0,U,50498,999,22454,.9790068E-5,.17E-6,0
ONEWEB-0427,2021-132AG,2026-07-10T08:14:21.677280,13.18686428,.00018654,87.9191,330.8303,91.2447,268.8898,0,U,50499,999,22466,.88927018E-4,.48E-6,0
ONEWEB-0429,2021-132AH,2026-07-10T07:54:55.209024,13.18687162,.00018493,87.9183,330.8556,101.0882,259.0458,0,U,50500,999,22463,.13027094E-3,.64E-6,0
ONEWEB-0430,2021-132AJ,2026-07-10T07:37:55.578432,13.18688391,.0001978,87.9182,330.8566,103.8739,256.2613,0,U,50501,999,22467,.67318212E-4,.39E-6,0
ONEWEB-0432,2021-132AK,2026-07-09T09:22:18.984864,13.18686360,.000231,87.9190,331.0270,100.0785,260.0608,0,U,50502,999,22450,.74701502E-4,.42E-6,0
ONEWEB-0440,2021-132AL,2026-07-09T15:43:42.431808,13.18686519,.00015933,87.9190,330.9859,104.6381,255.4927,0,U,50503,999,22453,-.38407599E-4,-.2E-7,0
ONEWEB-0450,2021-132AM,2026-07-09T15:34:11.872128,13.18686595,.00019099,87.9180,330.9902,103.2252,256.9093,0,U,50504,999,22456,-.72286392E-4,-.16E-6,0
TIANHUI 4A,2021-134A,2026-07-10T07:48:22.445856,15.46818692,.00074178,88.9726,319.4285,358.7324,1.3915,0,U,50572,999,25344,.14114314E-3,.7115E-4,0
TIANHUI 4B,2021-134B,2026-07-10T07:48:54.775008,15.46818427,.00073175,88.9724,319.4084,5.0167,355.1165,0,U,50573,999,25341,.13788521E-3,.6951E-4,0
TJS-9,2021-135A,2026-07-10T07:24:50.543712,1.00274739,.00024773,0.0362,116.6684,310.8639,109.1220,0,U,50574,999,1666,0,-.288E-5,0
STARLINK-3323,2022-001B,2026-07-09T08:55:37.157376,15.08832497,.00012343,53.1607,332.6430,84.4695,275.6437,0,U,50804,999,24891,.10017438E-3,.1306E-4,0
STARLINK-3333,2022-001C,2026-07-08T16:56:27.809088,15.08826056,.00013334,53.1612,335.6364,97.9509,262.1634,0,U,50805,999,24881,.14232419E-3,.1977E-4,0
STARLINK-3335,2022-001D,2026-07-09T16:41:56.215392,15.08839783,.00011426,53.1610,331.1877,87.5682,272.5440,0,U,50806,999,24896,.35121629E-4,.271E-5,0
STARLINK-3355,2022-001F,2026-07-10T08:00:03.000384,15.25939975,.00010657,53.1602,327.6563,87.1703,160.3454,0,U,50808,999,580,.3012867E-1,.840259E-2,0
STARLINK-3232,2022-001G,2026-07-10T08:00:03.000384,15.26796171,.00011003,53.1591,327.5930,139.4450,120.8945,0,U,50809,999,581,.43010062E-2,.11625E-2,0
STARLINK-3338,2022-001K,2026-07-09T15:38:22.460640,15.08830739,.00013124,53.1612,331.4918,84.8751,275.2390,0,U,50812,999,24895,.12736024E-3,.1739E-4,0
STARLINK-3349,2022-001L,2026-07-10T05:20:49.248672,15.48170998,.00042465,53.2012,264.5291,345.1811,14.9073,0,U,50813,999,24996,.6995631E-3,.37129E-3,0
STARLINK-3324,2022-001M,2026-07-09T17:17:41.808192,15.08828111,.00012191,53.1623,341.0779,93.0627,267.0504,0,U,50814,999,24883,-.21022884E-4,-.622E-5,0
STARLINK-3234,2022-001N,2026-07-09T09:36:39.737088,15.08833963,.00011353,53.1621,342.5153,94.0556,266.0565,0,U,50815,999,24878,.866796E-5,-.15E-5,0
STARLINK-3342,2022-001P,2026-07-08T17:12:59.980896,15.18644137,.00014967,53.2134,338.1945,173.1870,186.9147,0,U,50816,999,24878,.89550383E-3,.18506E-3,0
STARLINK-3341,2022-001Q,2026-07-10T08:00:03.000384,15.16591974,.00011921,53.1606,338.0743,131.2268,43.9286,0,U,50817,999,574,.37707743E-2,.75003E-3,0
STARLINK-3336,2022-001R,2026-07-10T08:00:03.000384,15.15656159,.00017401,53.1603,338.1834,78.4886,142.3675,0,U,50818,999,581,.38868022E-2,.75287E-3,0
STARLINK-3327,2022-001S,2026-07-10T08:00:03.000384,15.17963732,.00007128,53.1608,338.0379,110.1943,146.3235,0,U,50819,999,576,.39098355E-2,.80973E-3,0
STARLINK-3339,2022-001T,2026-07-09T10:24:22.459392,15.08833240,.00012217,53.1608,342.3647,94.6137,265.4994,0,U,50820,999,24878,.11737447E-3,.158E-4,0
STARLINK-3346,2022-001U,2026-07-09T16:08:47.448096,15.08840761,.00010944,53.1607,341.1743,91.7120,268.3997,0,U,50821,999,24882,.11605037E-3,.156E-4,0
STARLINK-3343,2022-001V,2026-07-09T21:21:27.608832,15.08845427,.00011758,53.1618,340.3133,78.6215,281.4908,0,U,50822,999,24885,.75405534E-4,.913E-5,0
STARLINK-3334,2022-001W,2026-07-10T08:00:03.000384,15.18230366,.00015365,53.1606,338.0554,74.9364,132.4295,0,U,50823,999,581,.3670146E-2,.76529E-3,0
STARLINK-3332,2022-001Y,2026-07-09T21:26:45.987648,15.08836770,.00012684,53.1613,340.2997,64.7849,295.3274,0,U,50825,999,24885,.11223878E-3,.1499E-4,0
