ONEWEB-0421             
1 50496U 21132AD  26190.62500950  .00014534  00000+0  36815-1 0  9998
2 50496  87.9186 330.9935 0001306 109.0068 251.1206 13.18608134224573
ONEWEB-0424             
1 50497U 21132AE  26190.66210394  .00012145  00000+0  30760-1 0  9992
2 50497  87.9186 330.9854 0002487 105.2254 254.9154 13.18622331224602
ONEWEB-0426             
1 50498U 21132AF  26190.62079146  .00000017  00000+0  97901-5 0  9996
2 50498  87.9187 330.9851 0001501  74.1664 285.9633 13.18685785224547
ONEWEB-0427             
1 50499U 21132AG  26191.34330645  .00000048  00000+0  88927-4 0  9992
2 50499  87.9191 330.8303 0001865  91.2447 268.8898 13.18686428224667
ONEWEB-0429             
1 50500U 21132AH  26191.32980566  .00000064  00000+0  13027-3 0  9992
2 50500  87.9183 330.8556 0001849 101.0882 259.0458 13.18687162224633
ONEWEB-0430             
1 50501U 21132AJ  26191.31800438  .00000039  00000+0  67318-4 0  9996
2 50501  87.9182 330.8566 0001978 103.8739 256.2613 13.18688391224679
ONEWEB-0432             
1 50502U 21132AK  26190.39049751  .00000042  00000+0  74702-4 0  9996
2 50502  87.9190 331.0270 0002310 100.0785 260.0608 13.18686360224508
ONEWEB-0440             
1 50503U 21132AL  26190.65535222 -.00000002  00000+0 -38408-4 0  9990
2 50503  87.9190 330.9859 0001593 104.6381 255.4927 13.18686519224535
ONEWEB-0450             
1 50504U 21132AM  26190.64874852 -.00000016  00000+0 -72286-4 0  9992
2 50504  87.9180 330.9902 0001909 103.2252 256.9093 13.18686595224564
TIANHUI 4A              
1 50572U 21134A   26191.32525979  .00007115  00000+0  14114-3 0  9998
2 50572  88.9726 319.4285 0007417 358.7324   1.3915 15.46818692253441
TIANHUI 4B              
1 50573U 21134B   26191.32563397  .00006951  00000+0  13789-3 0  9999
2 50573  88.9724 319.4084 0007317   5.0167 355.1165 15.46818427253413
TJS-9                   
1 50574U 21135A   26191.30891833 -.00000288  00000+0  00000+0 0  9994
2 50574   0.0362 116.6684 0002477 310.8639 109.1220  1.00274739 16663
STARLINK-3323           
1 50804U 22001B   26190.37195784  .00001306  00000+0  10017-3 0  9995
2 50804  53.1607 332.6430 0001234  84.4695 275.6437 15.08832497248913
STARLINK-3333           
1 50805U 22001C   26189.70587742  .00001977  00000+0  14232-3 0  9997
2 50805  53.1612 335.6364 0001333  97.9509 262.1634 15.08826056248815
STARLINK-3335           
1 50806U 22001D   26190.69578953  .00000271  00000+0  35122-4 0  9990
2 50806  53.1610 331.1877 0001142  87.5682 272.5440 15.08839783248966
STARLINK-3355           
1 50808U 22001F   26191.33336806  .00840259  00000+0  30129-1 0  9990
2 50808  53.1602 327.6563 0001065  87.1703 160.3454 15.25939975  5801
STARLINK-3232           
1 50809U 22001G   26191.33336806  .00116250  00000+0  43010-2 0  9992
2 50809  53.1591 327.5930 0001100 139.4450 120.8945 15.26796171  5813
STARLINK-3338           
1 50812U 22001K   26190.65164885  .00001739  00000+0  12736-3 0  9993
2 50812  53.1612 331.4918 0001312  84.8751 275.2390 15.08830739248955
STARLINK-3349           
1 50813U 22001L   26191.22279223  .00037129  00000+0  69956-3 0  9999
2 50813  53.2012 264.5291 0004246 345.1811  14.9073 15.48170998249966
STARLINK-3324           
1 50814U 22001M   26190.72062278 -.00000622  00000+0 -21023-4 0  9998
2 50814  53.1623 341.0779 0001219  93.0627 267.0504 15.08828111248835
STARLINK-3234           
1 50815U 22001N   26190.40045992 -.00000150  00000+0  86680-5 0  9994
2 50815  53.1621 342.5153 0001135  94.0556 266.0565 15.08833963248786
STARLINK-3342           
1 50816U 22001P   26189.71736089  .00018506  00000+0  89550-3 0  9991
2 50816  53.2134 338.1945 0001496 173.1870 186.9147 15.18644137248785
STARLINK-3341           
1 50817U 22001Q   26191.33336806  .00075003  00000+0  37708-2 0  9998
2 50817  53.1606 338.0743 0001192 131.2268  43.9286 15.16591974  5744
STARLINK-3336           
1 50818U 22001R   26191.33336806  .00075287  00000+0  38868-2 0  9991
2 50818  53.1603 338.1834 0001740  78.4886 142.3675 15.15656159  5811
STARLINK-3327           
1 50819U 22001S   26191.33336806  .00080973  00000+0  39098-2 0  9996
2 50819  53.1608 338.0379 0000712 110.1943 146.3235 15.17963732  5766
STARLINK-3339           
1 50820U 22001T   26190.43359328  .00001580  00000+0  11737-3 0  9990
2 50820  53.1608 342.3647 0001221  94.6137 265.4994 15.08833240248787
STARLINK-3346           
1 50821U 22001U   26190.67277139  .00001560  00000+0  11605-3 0  9998
2 50821  53.1607 341.1743 0001094  91.7120 268.3997 15.08840761248825
STARLINK-3343           
1 50822U 22001V   26190.88990288  .00000913  00000+0  75406-4 0  9990
2 50822  53.1618 340.3133 0001175  78.6215 281.4908 15.08845427248856
STARLINK-3334           
1 50823U 22001W   26191.33336806  .00076529  00000+0  36701-2 0  9991
2 50823  53.1606 338.0554 0001536  74.9364 132.4295 15.18230366  5812
STARLINK-3332           
1 50825U 22001Y   26190.89358782  .00001499  00000+0  11224-3 0  9998
2 50825  53.1613 340.2997 0001268  64.7849 295.3274 15.08836770248854
